NORAD_CAT_ID,OBJECT_NAME,OBJECT_TYPE,EPOCH,MEAN_MOTION,ECCENTRICITY,INCLINATION,RA_OF_ASC_NODE,ARG_OF_PERICENTER,MEAN_ANOMALY,BSTAR,MEAN_MOTION_DOT,MEAN_MOTION_DDOT,TLE_LINE0,TLE_LINE1,TLE_LINE2,SEMIMAJOR_AXIS,PERIOD,APOGEE,PERIGEE,DECAYED
52671.0,STARLINK-4071,PAYLOAD,2022-11-22 18:57:28,15.08836368,0.0002299,53.2163,154.1552,53.4561,306.6642,3.9905e-05,3.47e-06,0.0,0 STARLINK-4071,1 52671U 22053R   22326.78991819  .00000347  00000-0  39905-4 0  9994,2 52671  53.2163 154.1552 0002299  53.4561 306.6642 15.08836368 29019,6917.891,95.438,541.347,538.1659999999998,0.0
52671.0,STARLINK-4071,PAYLOAD,2022-11-23 06:05:11,15.08834813,0.0002303,53.2164,152.0738,53.5567,306.5637,1.1698e-05,-1.02e-06,0.0,0 STARLINK-4071,1 52671U 22053R   22327.25360137 -.00000102  00000-0  11698-4 0  9999,2 52671  53.2164 152.0738 0002303  53.5567 306.5637 15.08834813 29517,6917.896,95.438,541.354,538.168,0.0
52671.0,STARLINK-4071,PAYLOAD,2022-11-23 18:48:16,15.08838459,0.0002321,53.2165,149.695,54.0658,306.0549,2.116e-05,4.8e-07,0.0,0 STARLINK-4071,1 52671U 22053R   22327.78351950  .00000048  00000-0  21160-4 0  9993,2 52671  53.2165 149.6950 0002321  54.0658 306.0549 15.08838459 29598,6917.885,95.438,541.356,538.144,0.0
52671.0,STARLINK-4071,PAYLOAD,2022-11-23 21:59:02,15.088386300000002,0.0002297,53.2164,149.1,53.6183,306.5021,-9.1658e-06,-4.34e-06,0.0,0 STARLINK-4071,1 52671U 22053R   22327.91599987 -.00000434  00000-0 -91658-5 0  9993,2 52671  53.2164 149.1000 0002297  53.6183 306.5021 15.08838630 29184,6917.885,95.438,541.339,538.161,0.0
52671.0,STARLINK-4071,PAYLOAD,2022-11-24 20:14:26,15.08835949,0.0002298,53.2164,144.9366,54.5236,305.597,0.00010479,1.3800000000000008e-05,0.0,0 STARLINK-4071,1 52671U 22053R   22328.84336016  .00001380  00000-0  10479-3 0  9997,2 52671  53.2164 144.9366 0002298  54.5236 305.5970 15.08835949 29757,6917.893,95.438,541.3480000000002,538.168,0.0
52671.0,STARLINK-4071,PAYLOAD,2022-11-25 12:08:17,15.08840929,0.0002323,53.2163,141.9628,55.4812,304.6399,0.00011476,1.539e-05,0.0,0 STARLINK-4071,1 52671U 22053R   22329.50575865  .00001539  00000-0  11476-3 0  9992,2 52671  53.2163 141.9628 0002323  55.4812 304.6399 15.08840929 29426,6917.878000000002,95.437,541.35,538.136,0.0
52671.0,STARLINK-4071,PAYLOAD,2022-11-25 20:05:13,15.08844489,0.0002341,53.2161,140.4761,55.3783,304.7429,0.00013374,1.841e-05,0.0,0 STARLINK-4071,1 52671U 22053R   22329.83695634  .00001841  00000-0  13374-3 0  9990,2 52671  53.2161 140.4761 0002341  55.3783 304.7429 15.08844489 29905,6917.8669999999975,95.437,541.351,538.112,0.0
52671.0,STARLINK-4071,PAYLOAD,2022-11-26 11:59:04,15.08838925,0.0002334,53.2156,137.5041,58.9323,301.1898,7.719399999999999e-05,9.4e-06,0.0,0 STARLINK-4071,1 52671U 22053R   22330.49935983  .00000940  00000-0  77194-4 0  9998,2 52671  53.2156 137.5041 0002334  58.9323 301.1898 15.08838925 30000,6917.884,95.438,541.363,538.134,0.0
52671.0,STARLINK-4071,PAYLOAD,2022-11-26 16:45:14,15.0882805,0.0002354,53.2165,136.6109,58.6353,301.4869,0.0001142,1.529e-05,0.0,0 STARLINK-4071,1 52671U 22053R   22330.69808440  .00001529  00000-0  11420-3 0  9990,2 52671  53.2165 136.6109 0002354  58.6353 301.4869 15.08828050 29600,6917.917,95.438,541.41,538.153,0.0
52671.0,STARLINK-4071,PAYLOAD,2022-11-27 11:49:51,15.08839671,0.0002333,53.2163,133.0413,55.5081,304.6131,-3.5014e-06,-3.44e-06,0.0,0 STARLINK-4071,1 52671U 22053R   22331.49296107 -.00000344  00000-0 -35014-5 0  9993,2 52671  53.2163 133.0413 0002333  55.5081 304.6131 15.08839671 29729,6917.880999999999,95.438,541.36,538.132,0.0
52671.0,STARLINK-4071,PAYLOAD,2022-11-27 16:36:01,15.08835201,0.0002284,53.2169,132.1508,59.8746,300.2472,0.00011458,1.536e-05,0.0,0 STARLINK-4071,1 52671U 22053R   22331.69168078  .00001536  00000-0  11458-3 0  9996,2 52671  53.2169 132.1508 0002284  59.8746 300.2472 15.08835201 30187,6917.895,95.438,541.34,538.18,0.0
52671.0,STARLINK-4071,PAYLOAD,2022-11-28 03:43:42,15.08846656,0.000236,53.217,130.0692,59.2402,300.8822,2.6664e-05,1.36e-06,0.0,0 STARLINK-4071,1 52671U 22053R   22332.15535521  .00000136  00000-0  26664-4 0  9990,2 52671  53.2170 130.0692 0002360  59.2402 300.8822 15.08846656 29828,6917.86,95.437,541.3580000000002,538.092,0.0
52671.0,STARLINK-4071,PAYLOAD,2022-11-28 10:05:14,15.08848666,0.0002313,53.2174,128.8804,60.3179,299.8043,6.7063e-05,7.79e-06,0.0,0 STARLINK-4071,1 52671U 22053R   22332.42031169  .00000779  00000-0  67063-4 0  9990,2 52671  53.2174 128.8804 0002313  60.3179 299.8043 15.08848666 30292,6917.854,95.437,541.319,538.119,0.0
52671.0,STARLINK-4071,PAYLOAD,2022-11-28 16:26:48,15.08831934,0.0002199,53.2158,127.688,58.2658,301.8548,2.2419e-05,6.8e-07,0.0,0 STARLINK-4071,1 52671U 22053R   22332.68528357  .00000068  00000-0  22419-4 0  9995,2 52671  53.2158 127.6880 0002199  58.2658 301.8548 15.08831934 29905,6917.905,95.438,541.2909999999998,538.249,0.0
52671.0,STARLINK-4071,PAYLOAD,2022-11-29 09:56:03,15.08836061,0.0002119,53.2162,124.4172,56.1791,303.9403,-1.5612e-06,-3.13e-06,0.0,0 STARLINK-4071,1 52671U 22053R   22333.41392452 -.00000313  00000-0 -15612-5 0  9995,2 52671  53.2162 124.4172 0002119  56.1791 303.9403 15.08836061 30446,6917.892,95.438,541.2230000000002,538.2919999999998,0.0
52671.0,STARLINK-4071,PAYLOAD,2022-11-29 14:42:12,15.08840446,0.0002161,53.2163,123.5254,56.6824,303.4375,3.5769e-05,2.81e-06,0.0,0 STARLINK-4071,1 52671U 22053R   22333.61264078  .00000281  00000-0  35769-4 0  9995,2 52671  53.2163 123.5254 0002161  56.6824 303.4375 15.08840446 30048,6917.879,95.438,541.239,538.249,0.0
52671.0,STARLINK-4071,PAYLOAD,2022-11-30 09:46:49,15.0884425,0.0002122,53.2163,119.9566,57.335,302.7847,7.5728e-05,9.17e-06,0.0,0 STARLINK-4071,1 52671U 22053R   22334.40751555  .00000917  00000-0  75728-4 0  9999,2 52671  53.2163 119.9566 0002122  57.3350 302.7847 15.08844250 30595,6917.8669999999975,95.437,541.2,538.264,0.0
52671.0,STARLINK-4071,PAYLOAD,2022-11-30 14:32:58,15.08849639,0.0002161,53.2165,119.0649,57.7816,302.3385,0.00011223,1.499e-05,0.0,0 STARLINK-4071,1 52671U 22053R   22334.60623051  .00001499  00000-0  11223-3 0  9995,2 52671  53.2165 119.0649 0002161  57.7816 302.3385 15.08849639 30199,6917.851,95.437,541.211,538.221,0.0
52671.0,STARLINK-4071,PAYLOAD,2022-12-01 03:16:04,15.08833779,0.0002363,53.2169,116.6875,56.7848,303.337,4.7729e-05,4.71e-06,0.0,0 STARLINK-4071,1 52671U 22053R   22335.13616413  .00000471  00000-0  47729-4 0  9998,2 52671  53.2169 116.6875 0002363  56.7848 303.3370 15.08833779 30277,6917.899,95.438,541.399,538.13,0.0
52671.0,STARLINK-4071,PAYLOAD,2022-12-01 17:34:32,15.08844074,0.000259,53.2163,114.0121,46.3599,313.7608,7.9681e-05,9.8e-06,0.0,0 STARLINK-4071,1 52671U 22053R   22335.73231609  .00000980  00000-0  79681-4 0  9991,2 52671  53.2163 114.0121 0002590  46.3599 313.7608 15.08844074 30366,6917.868,95.437,541.525,537.941,0.0
52671.0,STARLINK-4071,PAYLOAD,2022-12-02 17:25:19,15.08840702,0.000205,53.217,109.5506,52.3441,307.7737,-5.2456e-05,-1.123e-05,0.0,0 STARLINK-4071,1 52671U 22053R   22336.72591941 -.00001123  00000-0 -52456-4 0  9992,2 52671  53.2170 109.5506 0002050  52.3441 307.7737 15.08840702 30511,6917.878000000002,95.438,541.161,538.325,0.0
52671.0,STARLINK-4071,PAYLOAD,2022-12-03 12:29:57,15.08832949,0.0002105,53.217,105.9822,54.2184,305.9003,-3.3118000000000004e-05,-8.15e-06,0.0,0 STARLINK-4071,1 52671U 22053R   22337.52080710 -.00000815  00000-0 -33118-4 0  9999,2 52671  53.2170 105.9822 0002105  54.2184 305.9003 15.08832949 30631,6917.901999999999,95.438,541.2230000000002,538.311,0.0
52671.0,STARLINK-4071,PAYLOAD,2022-12-03 15:40:43,15.08837104,0.0002119,53.2171,105.388,54.9653,305.1538,-6.6779e-06,-3.95e-06,0.0,0 STARLINK-4071,1 52671U 22053R   22337.65328408 -.00000395  00000-0 -66779-5 0  9995,2 52671  53.2171 105.3880 0002119  54.9653 305.1538 15.08837104 31086,6917.889,95.438,541.22,538.288,0.0
52671.0,STARLINK-4071,PAYLOAD,2022-12-04 01:13:02,15.08845388,0.0002162,53.2175,103.6037,55.3128,304.8068,7.0274e-06,-1.76e-06,0.0,0 STARLINK-4071,1 52671U 22053R   22338.05071831 -.00000176  00000-0  70274-5 0  9996,2 52671  53.2175 103.6037 0002162  55.3128 304.8068 15.08845388 30711,6917.864000000001,95.437,541.225,538.2330000000002,0.0
52671.0,STARLINK-4071,PAYLOAD,2022-12-04 09:09:58,15.08885906,0.000126,53.2194,102.1195,31.4751,328.6316,-0.00061776,-0.00010118,0.0,0 STARLINK-4071,1 52671U 22053R   22338.38192492 -.00010118  00000-0 -61776-3 0  9992,2 52671  53.2194 102.1195 0001260  31.4751 328.6316 15.08885906 31199,6917.74,95.435,540.477,538.7330000000002,0.0
52671.0,STARLINK-4071,PAYLOAD,2022-12-04 17:06:54,15.08829483,0.0002084,53.2176,100.6301,52.425,307.6931,8.795600000000001e-05,1.112e-05,0.0,0 STARLINK-4071,1 52671U 22053R   22338.71312866  .00001112  00000-0  87956-4 0  9999,2 52671  53.2176 100.6301 0002084  52.4250 307.6931 15.08829483 30819,6917.913000000001,95.438,541.219,538.336,0.0
52671.0,STARLINK-4071,PAYLOAD,2022-12-04 18:42:17,15.08831317,0.0002092,53.2174,100.3323,52.4623,307.6559,9.9833e-05,1.301e-05,0.0,0 STARLINK-4071,1 52671U 22053R   22338.77936813  .00001301  00000-0  99833-4 0  9996,2 52671  53.2174 100.3323 0002092  52.4623 307.6559 15.08831317 31255,6917.906999999997,95.438,541.219,538.325,0.0
52671.0,STARLINK-4071,PAYLOAD,2022-12-05 01:03:49,15.0883726,0.0002105,53.2176,99.1431,52.9732,307.1453,0.00014767,2.063e-05,0.0,0 STARLINK-4071,1 52671U 22053R   22339.04432418  .00002063  00000-0  14767-3 0  9997,2 52671  53.2176  99.1431 0002105  52.9732 307.1453 15.08837260 30860,6917.889,95.438,541.21,538.298,0.0
52671.0,STARLINK-4071,PAYLOAD,2022-12-05 09:00:45,15.0884492,0.0002084,53.2182,97.6557,54.3269,305.7917,0.00012713,1.736e-05,0.0,0 STARLINK-4071,1 52671U 22053R   22339.37552105  .00001736  00000-0  12713-3 0  9994,2 52671  53.2182  97.6557 0002084  54.3269 305.7917 15.08844920 31340,6917.865,95.437,541.172,538.289,0.0
